{
 "generated_at": "2026-07-24T07:31:19Z",
 "sources": [
  {
   "name": "CelesTrak",
   "url": "https://celestrak.org/NORAD/elements/",
   "license": "frei verfügbar; Attribution. Ursprünglich USSPACECOM/Space-Track."
  },
  {
   "name": "GCAT (J. McDowell, planet4589.org)",
   "url": "https://planet4589.org/space/gcat/",
   "license": "CC-BY 4.0"
  }
 ],
 "satellites": [
  {
   "norad": 43260,
   "name": "GAOFEN-1 03",
   "intl": "2018-031B",
   "group": "resource",
   "gcat": {
    "class": "C",
    "category": "IMG",
    "owner": "CNSAS",
    "state": "CN"
   },
   "omm": {
    "OBJECT_NAME": "GAOFEN-1 03",
    "OBJECT_ID": "2018-031B",
    "EPOCH": "2026-07-23T20:56:50.320032",
    "MEAN_MOTION": 14.76471568,
    "ECCENTRICITY": 0.0001718,
    "INCLINATION": 98.0501,
    "RA_OF_ASC_NODE": 267.1475,
    "ARG_OF_PERICENTER": 346.7975,
    "MEAN_ANOMALY": 13.319,
    "EPHEMERIS_TYPE": 0,
    "CLASSIFICATION_TYPE": "U",
    "NORAD_CAT_ID": 43260,
    "ELEMENT_SET_NO": 999,
    "REV_AT_EPOCH": 44810,
    "BSTAR": 0.000099666,
    "MEAN_MOTION_DOT": 0.00000642,
    "MEAN_MOTION_DDOT": 0
   }
  },
  {
   "norad": 43262,
   "name": "GAOFEN-1 04",
   "intl": "2018-031D",
   "group": "resource",
   "gcat": {
    "class": "C",
    "category": "IMG",
    "owner": "CNSAS",
    "state": "CN"
   },
   "omm": {
    "OBJECT_NAME": "GAOFEN-1 04",
    "OBJECT_ID": "2018-031D",
    "EPOCH": "2026-07-23T20:22:00.100992",
    "MEAN_MOTION": 14.76444748,
    "ECCENTRICITY": 0.0000786,
    "INCLINATION": 98.0509,
    "RA_OF_ASC_NODE": 267.3185,
    "ARG_OF_PERICENTER": 58.5313,
    "MEAN_ANOMALY": 301.5973,
    "EPHEMERIS_TYPE": 0,
    "CLASSIFICATION_TYPE": "U",
    "NORAD_CAT_ID": 43262,
    "ELEMENT_SET_NO": 999,
    "REV_AT_EPOCH": 44809,
    "BSTAR": 0.000031433,
    "MEAN_MOTION_DOT": 0.00000167,
    "MEAN_MOTION_DDOT": 0
   }
  },
  {
   "norad": 44622,
   "name": "GAOFEN-10R",
   "intl": "2019-066A",
   "group": "resource",
   "gcat": {
    "class": null,
    "category": null,
    "owner": null,
    "state": null
   },
   "omm": {
    "OBJECT_NAME": "GAOFEN-10R",
    "OBJECT_ID": "2019-066A",
    "EPOCH": "2026-07-23T20:34:35.351904",
    "MEAN_MOTION": 14.83072011,
    "ECCENTRICITY": 0.0006355,
    "INCLINATION": 98.0519,
    "RA_OF_ASC_NODE": 158.7073,
    "ARG_OF_PERICENTER": 29.2132,
    "MEAN_ANOMALY": 330.9436,
    "EPHEMERIS_TYPE": 0,
    "CLASSIFICATION_TYPE": "U",
    "NORAD_CAT_ID": 44622,
    "ELEMENT_SET_NO": 999,
    "REV_AT_EPOCH": 36781,
    "BSTAR": 0.00014625,
    "MEAN_MOTION_DOT": 0.00001136,
    "MEAN_MOTION_DDOT": 0
   }
  },
  {
   "norad": 43585,
   "name": "GAOFEN-11 01",
   "intl": "2018-063A",
   "group": "resource",
   "gcat": {
    "class": null,
    "category": null,
    "owner": null,
    "state": null
   },
   "omm": {
    "OBJECT_NAME": "GAOFEN-11 01",
    "OBJECT_ID": "2018-063A",
    "EPOCH": "2026-07-23T20:02:02.995296",
    "MEAN_MOTION": 15.56270542,
    "ECCENTRICITY": 0.0004186,
    "INCLINATION": 97.1271,
    "RA_OF_ASC_NODE": 271.6305,
    "ARG_OF_PERICENTER": 168.3194,
    "MEAN_ANOMALY": 191.8159,
    "EPHEMERIS_TYPE": 0,
    "CLASSIFICATION_TYPE": "U",
    "NORAD_CAT_ID": 43585,
    "ELEMENT_SET_NO": 999,
    "REV_AT_EPOCH": 44604,
    "BSTAR": 0.00018365,
    "MEAN_MOTION_DOT": 0.00012807,
    "MEAN_MOTION_DDOT": 0
   }
  },
  {
   "norad": 44819,
   "name": "GAOFEN-12 01",
   "intl": "2019-082A",
   "group": "resource",
   "gcat": {
    "class": null,
    "category": null,
    "owner": null,
    "state": null
   },
   "omm": {
    "OBJECT_NAME": "GAOFEN-12 01",
    "OBJECT_ID": "2019-082A",
    "EPOCH": "2026-07-23T20:19:57.382752",
    "MEAN_MOTION": 14.80484793,
    "ECCENTRICITY": 0.0000627,
    "INCLINATION": 97.8115,
    "RA_OF_ASC_NODE": 210.2613,
    "ARG_OF_PERICENTER": 78.3496,
    "MEAN_ANOMALY": 281.7787,
    "EPHEMERIS_TYPE": 0,
    "CLASSIFICATION_TYPE": "U",
    "NORAD_CAT_ID": 44819,
    "ELEMENT_SET_NO": 999,
    "REV_AT_EPOCH": 35951,
    "BSTAR": 0.000052759,
    "MEAN_MOTION_DOT": 0.00000353,
    "MEAN_MOTION_DDOT": 0
   }
  },
  {
   "norad": 48079,
   "name": "GAOFEN-12 02",
   "intl": "2021-026A",
   "group": "resource",
   "gcat": {
    "class": "D",
    "category": "IMG-R",
    "owner": "ZLZB",
    "state": "CN"
   },
   "omm": {
    "OBJECT_NAME": "GAOFEN-12 02",
    "OBJECT_ID": "2021-026A",
    "EPOCH": "2026-07-23T20:41:34.188864",
    "MEAN_MOTION": 14.80321078,
    "ECCENTRICITY": 0.0006213,
    "INCLINATION": 97.9947,
    "RA_OF_ASC_NODE": 202.8964,
    "ARG_OF_PERICENTER": 110.0484,
    "MEAN_ANOMALY": 250.1397,
    "EPHEMERIS_TYPE": 0,
    "CLASSIFICATION_TYPE": "U",
    "NORAD_CAT_ID": 48079,
    "ELEMENT_SET_NO": 999,
    "REV_AT_EPOCH": 28718,
    "BSTAR": 0.00005175,
    "MEAN_MOTION_DOT": 0.00000342,
    "MEAN_MOTION_DDOT": 0
   }
  },
  {
   "norad": 52912,
   "name": "GAOFEN-12 03",
   "intl": "2022-069A",
   "group": "resource",
   "gcat": {
    "class": "D",
    "category": "IMG-R",
    "owner": "ZLZB",
    "state": "CN"
   },
   "omm": {
    "OBJECT_NAME": "GAOFEN-12 03",
    "OBJECT_ID": "2022-069A",
    "EPOCH": "2026-07-23T19:56:14.124192",
    "MEAN_MOTION": 14.80084327,
    "ECCENTRICITY": 0.0002259,
    "INCLINATION": 97.8229,
    "RA_OF_ASC_NODE": 91.769,
    "ARG_OF_PERICENTER": 63.3316,
    "MEAN_ANOMALY": 296.8127,
    "EPHEMERIS_TYPE": 0,
    "CLASSIFICATION_TYPE": "U",
    "NORAD_CAT_ID": 52912,
    "ELEMENT_SET_NO": 999,
    "REV_AT_EPOCH": 22003,
    "BSTAR": 0.000076753,
    "MEAN_MOTION_DOT": 0.00000531,
    "MEAN_MOTION_DDOT": 0
   }
  },
  {
   "norad": 57654,
   "name": "GAOFEN-12 04",
   "intl": "2023-123A",
   "group": "resource",
   "gcat": {
    "class": "D",
    "category": "IMG-R",
    "owner": "ZLZB",
    "state": "CN"
   },
   "omm": {
    "OBJECT_NAME": "GAOFEN-12 04",
    "OBJECT_ID": "2023-123A",
    "EPOCH": "2026-07-23T20:27:05.961312",
    "MEAN_MOTION": 14.79787741,
    "ECCENTRICITY": 0.0003008,
    "INCLINATION": 97.9098,
    "RA_OF_ASC_NODE": 122.3192,
    "ARG_OF_PERICENTER": 31.6588,
    "MEAN_ANOMALY": 328.4804,
    "EPHEMERIS_TYPE": 0,
    "CLASSIFICATION_TYPE": "U",
    "NORAD_CAT_ID": 57654,
    "ELEMENT_SET_NO": 999,
    "REV_AT_EPOCH": 15805,
    "BSTAR": 0.00012895,
    "MEAN_MOTION_DOT": 0.00000919,
    "MEAN_MOTION_DDOT": 0
   }
  },
  {
   "norad": 40118,
   "name": "GAOFEN-2",
   "intl": "2014-049A",
   "group": "resource",
   "gcat": {
    "class": "C",
    "category": "IMG",
    "owner": "CNSAS",
    "state": "CN"
   },
   "omm": {
    "OBJECT_NAME": "GAOFEN-2",
    "OBJECT_ID": "2014-049A",
    "EPOCH": "2026-07-23T20:45:46.712736",
    "MEAN_MOTION": 14.80935318,
    "ECCENTRICITY": 0.0008681,
    "INCLINATION": 98.0089,
    "RA_OF_ASC_NODE": 269.0335,
    "ARG_OF_PERICENTER": 110.7983,
    "MEAN_ANOMALY": 249.416,
    "EPHEMERIS_TYPE": 0,
    "CLASSIFICATION_TYPE": "U",
    "NORAD_CAT_ID": 40118,
    "ELEMENT_SET_NO": 999,
    "REV_AT_EPOCH": 64466,
    "BSTAR": 0.000093049,
    "MEAN_MOTION_DOT": 0.00000667,
    "MEAN_MOTION_DDOT": 0
   }
  },
  {
   "norad": 41727,
   "name": "GAOFEN-3",
   "intl": "2016-049A",
   "group": "resource",
   "gcat": {
    "class": "C",
    "category": "IMG-R",
    "owner": "GWHYZ",
    "state": "CN"
   },
   "omm": {
    "OBJECT_NAME": "GAOFEN-3",
    "OBJECT_ID": "2016-049A",
    "EPOCH": "2026-07-23T20:30:09.428256",
    "MEAN_MOTION": 14.4221902,
    "ECCENTRICITY": 0.0001777,
    "INCLINATION": 98.4029,
    "RA_OF_ASC_NODE": 212.0876,
    "ARG_OF_PERICENTER": 82.3084,
    "MEAN_ANOMALY": 277.8307,
    "EPHEMERIS_TYPE": 0,
    "CLASSIFICATION_TYPE": "U",
    "NORAD_CAT_ID": 41727,
    "ELEMENT_SET_NO": 999,
    "REV_AT_EPOCH": 52393,
    "BSTAR": 0.000004295,
    "MEAN_MOTION_DOT": -2.9e-7,
    "MEAN_MOTION_DDOT": 0
   }
  }
 ]
}
